OSCAR 7 (AO-7)          
1 07530U 74089B   23049.91555941 -.00000027  00000+0  11691-3 0  9990
2 07530 101.9375  35.8401 0011987 290.6300  96.7392 12.53661394208590
PHASE 3B (AO-10)        
1 14129U 83058B   23048.96469061 -.00000210  00000+0  00000+0 0  9991
2 14129  26.9121  55.9571 6035832 148.9654 267.9101  2.05868552270462
UOSAT 2 (UO-11)         
1 14781U 84021B   23049.91063207  .00002326  00000+0  28321-3 0  9993
2 14781  97.6448  31.5510 0006966 222.5129 137.5547 14.84328090 97597
LUSAT (LO-19)           
1 20442U 90005G   23050.18799575  .00000370  00000+0  15156-3 0  9997
2 20442  98.8301  24.2752 0012043 159.6603 200.5062 14.33171049728505
EYESAT A (AO-27)        
1 22825U 93061C   23049.56283988  .00000256  00000+0  11662-3 0  9996
2 22825  98.8591  90.4444 0009311  58.6706 301.5386 14.30248437533601
ITAMSAT (IO-26)         
1 22826U 93061D   23050.36526182  .00000270  00000+0  12115-3 0  9993
2 22826  98.8535  91.1277 0009638  43.5432 316.6510 14.30603017533967
RADIO ROSTO (RS-15)     
1 23439U 94085A   23049.60061931 -.00000039  00000+0  10000-3 0  9997
2 23439  64.8169 107.4933 0165975 230.6866 127.9241 11.27573513159240
JAS-2 (FO-29)           
1 24278U 96046B   23050.25338392  .00000051  00000+0  88128-4 0  9999
2 24278  98.5190  44.9329 0350342   3.0436 357.2727 13.53133428309234
TECHSAT 1B (GO-32)      
1 25397U 98043D   23049.60225361  .00000245  00000+0  12671-3 0  9993
2 25397  98.8532   6.1401 0002273 103.6805 256.4626 14.23823135278451
ISS (ZARYA)             
1 25544U 98067A   23050.58757273  .00017402  00000+0  30944-3 0  9990
2 25544  51.6393 191.0122 0009615   6.9019  78.7997 15.50215394383557
PCSAT (NO-44)           
1 26931U 01043C   23049.72408197  .00000425  00000+0  19338-3 0  9992
2 26931  67.0514 142.6875 0006171 283.1999  76.8413 14.30827383116797
SAUDISAT 1C (SO-50)     
1 27607U 02058C   23049.61509245  .00002040  00000+0  29621-3 0  9995
2 27607  64.5542 268.3268 0077939 247.7374 111.5450 14.76767585 84717
CUTE-1 (CO-55)          
1 27844U 03031E   23049.74782140  .00000723  00000+0  34255-3 0  9996
2 27844  98.6806  58.7348 0010935 107.2518 252.9857 14.22635242 18920
CUBESAT XI-IV (CO-57)   
1 27848U 03031J   23050.28167086  .00000577  00000+0  27968-3 0  9997
2 27848  98.6845  59.7181 0010715 119.1894 241.0357 14.22166754 18794
MOZHAYETS 4 (RS-22)     
1 27939U 03042A   23050.21255487  .00002976  00000+0  52823-3 0  9999
2 27939  98.2201 196.4526 0013145 146.0381 214.1609 14.67913696 37234
CUBESAT XI-V            
1 28895U 05043F   23050.08116915  .00002407  00000+0  45676-3 0  9998
2 28895  98.1333 183.2261 0017323  85.3535 274.9646 14.65047989923745
CUTE-1.7+APD II (CO-65) 
1 32785U 08021C   23049.80546219  .00005332  00000+0  54374-3 0  9997
2 32785  97.6915  18.4985 0013965 130.5307 229.7130 14.90999970803240
DELFI-C3 (DO-64)        
1 32789U 08021G   23050.32902390  .00039980  00000+0  16679-2 0  9997
2 32789  97.3188  73.6517 0008974 164.3138 195.8379 15.23521839809468
SEEDS II (CO-66)        
1 32791U 08021J   23050.14059503  .00007856  00000+0  72627-3 0  9992
2 32791  97.6426  24.1001 0014910  88.0001 272.2927 14.94751100804092
YUBILEINY (RS-30)       
1 32953U 08025A   23050.05717190  .00000024  00000+0  10000-3 0  9996
2 32953  82.5045  30.5605 0020654  81.8858 278.4565 12.43118984668976
KKS-1 (KISEKI)          
1 33499U 09002H   23049.76243026  .00002386  00000+0  34937-3 0  9994
2 33499  98.1891 300.4997 0007522 243.8671 116.1765 14.76588710757019
SWISSCUBE               
1 35932U 09051B   23049.91025933  .00001669  00000+0  37920-3 0  9992
2 35932  98.5389 277.3722 0007973  18.7456 341.4034 14.57337193712027
BEESAT-1                
1 35933U 09051C   23049.86633256  .00001449  00000+0  33087-3 0  9996
2 35933  98.5321 278.7669 0006417  32.6363 327.5230 14.57294868712139
ITUPSAT1                
1 35935U 09051E   23049.62423257  .00001632  00000+0  37862-3 0  9999
2 35935  98.5421 278.5049 0008780  34.4500 325.7265 14.56370676711734
XIWANG-1 (HOPE-1)       
1 36122U 09072B   23050.35757000 -.00000041  00000+0  59907-5 0  9999
2 36122 100.2223  18.0334 0007920 130.4197 229.7609 13.16378155633409
JUGNU                   
1 37839U 11058B   23050.47317029  .00000649  00000+0  20243-3 0  9990
2 37839  19.9606 117.0870 0018926   1.4072 113.2468 14.12884964587223
SRMSAT                  
1 37841U 11058D   23050.12723306  .00000551  00000+0  15746-3 0  9998
2 37841  19.9705 203.7924 0011804 174.0470 341.6298 14.10835850586333
M-CUBED & EXP-1 PRIME   
1 37855U 11061F   23049.43755703  .00024477  00000+0  91084-3 0  9997
2 37855 101.7092 305.3826 0136140  42.2793 318.8825 15.19201465618485
STRAND-1                
1 39090U 13009E   23049.79147460  .00000720  00000+0  26513-3 0  9998
2 39090  98.3922 246.3676 0007927 256.2100 103.8204 14.35459353522752
SOMP                    
1 39134U 13015E   23049.49869605  .00054074  00000+0  12677-2 0  9999
2 39134  64.8585 328.7412 0022141 246.0987 113.7831 15.41504265544573
BEESAT-3                
1 39135U 13015F   23050.16037127  .00034565  00000+0  10760-2 0  9996
2 39135  64.8637  10.1565 0028183 247.2923 112.5231 15.32739696544218
BEESAT-2                
1 39136U 13015G   23049.30042495  .00033177  00000+0  10986-2 0  9993
2 39136  64.8724  22.9739 0025430 285.9208  73.9122 15.30851442543420
ZACUBE-1 (TSHEPISOSAT)  
1 39417U 13066B   23049.73149742  .00005830  00000+0  69194-3 0  9992
2 39417  97.6704  15.7490 0054774 318.4986  41.2075 14.83769166499621
GOMX-1                  
1 39430U 13066Q   23050.49921569  .00005805  00000+0  10211-2 0  9994
2 39430  97.7939 308.4592 0147073 346.0566  13.6576 14.61101275492357
CUBEBUG-2 (LO-74)       
1 39440U 13066AA  23050.44630507  .00005180  00000+0  68431-3 0  9993
2 39440  97.7592   3.2225 0078575  50.8957 309.9207 14.78255237497959
FUNCUBE-1 (AO-73)       
1 39444U 13066AE  23050.15629347  .00005906  00000+0  67828-3 0  9990
2 39444  97.6568  18.6215 0052859 303.1663  56.4488 14.85183737498701
UWE-3                   
1 39446U 13066AG  23050.30809128  .00005612  00000+0  70505-3 0  9996
2 39446  97.7207   9.3406 0067185   5.9505 354.2490 14.80893986497567
SPROUT                  
1 39770U 14029E   23050.31746516  .00033040  00000+0  29158-2 0  9991
2 39770  97.9571 174.8140 0007923 343.4972  16.5954 14.96283969474499
UNISAT-6                
1 40012U 14033C   23049.72595223  .00003669  00000+0  52651-3 0  9996
2 40012  97.6632 229.7201 0057486  81.0052 279.7659 14.75926066466299
DUCHIFAT-1              
1 40021U 14033M   23049.70296885  .00010597  00000+0  96038-3 0  9991
2 40021  98.0444  10.1586 0009664 316.5524  43.4934 14.95511242471463
QB50P1                  
1 40025U 14033R   23049.79404645  .00007627  00000+0  75132-3 0  9991
2 40025  97.9855 354.6609 0010546 335.9894  24.0831 14.92298750470989
NUDT-PHONESAT           
1 40900U 15049B   23049.83675969  .00203721  00000+0  19738-2 0  9997
2 40900  97.3722  77.1651 0007798 113.5134  59.4702 15.65702336412654
ZDPS 2A                 
1 40901U 15049C   23049.61063869  .00028791  00000+0  92035-3 0  9998
2 40901  97.4538  63.2455 0009605 178.1500 181.9779 15.32358206411024
ZDPS 2B                 
1 40902U 15049D   23050.24312677  .00047871  00000+0  14910-2 0  9999
2 40902  97.4631  61.9902 0009426 174.5173 245.4449 15.33076843411102
XW-2A                   
1 40903U 15049E   23050.48716427  .00137036  00000+0  88971-3 0  9999
2 40903  97.1369 116.4751 0004572 256.6518 233.3701 15.75572818417795
KAITUO 1A               
1 40904U 15049F   23050.48948763  .00023950  00000+0  10458-2 0  9993
2 40904  97.5004  56.2268 0010475 221.2537 290.3537 15.22074353410378
2015-049G               
1 40905U 15049G   23050.47690503  .00011460  00000+0  55141-3 0  9991
2 40905  97.5236  53.3613 0012399 229.8683 250.9198 15.18877691410074
XW-2C                   
1 40906U 15049H   23050.45792323  .00019067  00000+0  81356-3 0  9991
2 40906  97.4967  57.4717 0011222 208.2906 313.2400 15.22900311410450
XW-2D                   
1 40907U 15049J   23050.52848341  .00022090  00000+0  90729-3 0  9996
2 40907  97.4954  57.8104 0010734 200.1250 278.2031 15.24163527410532
LILACSAT-2              
1 40908U 15049K   23050.24604490  .00010080  00000+0  49929-3 0  9993
2 40908  97.5246  53.7814 0012731 236.6702 185.3107 15.17897702409896
XW-2E                   
1 40909U 15049L   23050.12285753  .00037338  00000+0  12565-2 0  9998
2 40909  97.4611  62.7327 0010451 170.8466 263.0424 15.30638375411033
XW-2F                   
1 40910U 15049M   23050.48201870  .00037119  00000+0  12701-2 0  9996
2 40910  97.4707  62.2975 0011547 170.7403 352.3138 15.30088904410841
XW-2B                   
1 40911U 15049N   23050.51553110  .00022017  00000+0  90880-3 0  9994
2 40911  97.4936  58.3017 0010474 201.6572 311.1102 15.23998430410411
KAITUO 1B               
1 40912U 15049P   23050.16452490  .00044309  00000+0  13266-2 0  9995
2 40912  97.4287  66.3742 0012470 135.9310 289.0513 15.34318756411455
LAPAN-A2                
1 40931U 15052B   23049.93455077  .00001839  00000+0  16531-3 0  9997
2 40931   5.9990 210.6137 0013171  55.7372 304.3992 14.77042901399841
E-ST@R-II               
1 41459U 16025D   23050.08655524  .00049011  00000+0  17141-2 0  9992
2 41459  98.1907 240.0427 0123744 148.2692 212.5765 15.22301797374886
AAUSAT 4                
1 41460U 16025E   23049.52411148  .00090319  00000+0  22759-2 0  9991
2 41460  98.1759 248.7039 0092175 115.3794 299.5078 15.35228564375447
NUSAT-1 (FRESCO)        
1 41557U 16033B   23050.26560832  .00059183  00000+0  12357-2 0  9992
2 41557  97.3845 154.8136 0009478 210.4544 201.2809 15.45278606375333
BEESAT-4                
1 41619U 16040W   23050.38677801  .00047557  00000+0  10834-2 0  9997
2 41619  97.1806 100.3975 0005795 311.4986  48.5764 15.42775912358617
